[{"OBJECT_NAME":"STARLINK-5518","OBJECT_ID":"2023-064X","EPOCH":"2026-03-09T13:13:57.832320","MEAN_MOTION":14.98327015,"ECCENTRICITY":0.00031905,"INCLINATION":69.9999,"RA_OF_ASC_NODE":125.0083,"ARG_OF_PERICENTER":268.3098,"MEAN_ANOMALY":91.7695,"EPHEMERIS_TYPE":0,"CLASSIFICATION_TYPE":"U","NORAD_CAT_ID":56469,"ELEMENT_SET_NO":999,"REV_AT_EPOCH":15571,"BSTAR":-5.3395901e-5,"MEAN_MOTION_DOT":-7.3e-6,"MEAN_MOTION_DDOT":0},{"OBJECT_NAME":"GNOMES-5","OBJECT_ID":"2024-149DL","EPOCH":"2026-03-09T22:53:01.372704","MEAN_MOTION":15.00280005,"ECCENTRICITY":0.00076217,"INCLINATION":97.6857,"RA_OF_ASC_NODE":148.0235,"ARG_OF_PERICENTER":89.6268,"MEAN_ANOMALY":270.5829,"EPHEMERIS_TYPE":0,"CLASSIFICATION_TYPE":"U","NORAD_CAT_ID":60574,"ELEMENT_SET_NO":999,"REV_AT_EPOCH":8527,"BSTAR":0.00047414566,"MEAN_MOTION_DOT":5.885e-5,"MEAN_MOTION_DDOT":0}]
